{
"type": "FeatureCollection",
"name": "Udine_Giardino di Palazzo Morpurgo_ogg",
"crs": { "type": "name", "properties": { "name": "urn:ogc:def:crs:OGC:1.3:CRS84" } },
"features": [
{ "type": "Feature", "properties": { "ID": null, "SITO": "Giardino di Palazzo Morpurgo", "NOME": "Scultura \"Ninfa\"", "LIV1": "ELEMENTI DI ARREDO", "LIV2": "ORNAMENTI SCULTOREI", "LIV3": "statua singola a soggetto mitologico", "NOTE": null, "COD_ID": "5", "COD_ID_NOM": "5, Scultura \"Ninfa\"", "COMUNE": "Udine", "COD GEMO": null, "FOTO": "5, Scultura \"Ninfa\"", "DESC_BREVE": "Una Ninfa al centro dell'acqua\n\nNelle mitologie antiche le Ninfe erano spiriti femminili dell'acqua, dei boschi, delle montagne. Erano simbolo della natura selvaggia ma anche della grazia. È esattamente quello che cercava di evocare lo scultore gemonese" }, "geometry": { "type": "Point", "coordinates": [ 13.236040356710888, 46.06248252339671 ] } },
{ "type": "Feature", "properties": { "ID": null, "SITO": "Giardino di Palazzo Morpurgo", "NOME": "Loggia neoclassica", "LIV1": "EDIFICI E MANUFATTI ARCHITETTONICI", "LIV2": "MANUFATTI CARATTERIZZANTI", "LIV3": "loggia", "NOTE": null, "COD_ID": "1", "COD_ID_NOM": "1, Loggia neoclassica", "COMUNE": "Udine", "COD GEMO": null, "FOTO": "1, Loggia neoclassica", "DESC_BREVE": "Una loggia per chiudere il giardino\n\nQuando alla fine dell'Ottocento la famiglia Morpurgo arrivò qui, questa loggia esisteva da quasi un secolo, ma era ancora chiusa da un muro che la separava dal giardino retrostante. Furono proprio i Morpurgo, tra il" }, "geometry": { "type": "Point", "coordinates": [ 13.236072358938349, 46.062393951174762 ] } },
{ "type": "Feature", "properties": { "ID": null, "SITO": "Giardino di Palazzo Morpurgo", "NOME": "Aiuole formali", "LIV1": "SPAZI VERDI", "LIV2": "AREE APERTE A DISEGNO ORNAMENTALE", "LIV3": "area ad aiuole geometriche", "NOTE": null, "COD_ID": "A", "COD_ID_NOM": "A, Aiuole formali", "COMUNE": "Udine", "COD GEMO": null, "FOTO": "A, Aiuole formali", "DESC_BREVE": "Aiuole formali — perché formali, oggi\nPer quasi tutto il Novecento il giardino Morpurgo aveva un'altra anima. Era un giardino informale, romantico, di gusto inglese: un'aiuola centrale circondata da un vialetto ghiaioso, alberi sparsi in apparente dis" }, "geometry": { "type": "Point", "coordinates": [ 13.236140628072761, 46.062435241125122 ] } }
]
}
